ORBCOMM FM103           
1 40091U 14040F   26012.96537021  .00000475  00000+0  13739-3 0  9998
2 40091  47.0053 106.8039 0001863 191.6695 168.4147 14.58596532594723
ORBCOMM FM114           
1 41179U 15081A   26012.70768647  .00000561  00000+0  15557-3 0  9990
2 41179  47.0060  16.9725 0002750 228.1977 131.8674 14.58618250535059
ORBCOMM FM119           
1 41180U 15081B   26012.08832290  .00000568  00000+0  15730-3 0  9999
2 41180  47.0008 289.2597 0001642 288.2364  71.8343 14.58565895536212
ORBCOMM FM105           
1 41181U 15081C   26012.82193880  .00000237  00000+0  11107-3 0  9994
2 41181  47.0027 311.2477 0001617 206.8199 153.2598 14.45438508531073
ORBCOMM FM110           
1 41182U 15081D   26012.69692731  .00000761  00000+0  19806-3 0  9995
2 41182  47.0032  16.5095 0001585  60.4335 299.6708 14.58664360534927
ORBCOMM FM118           
1 41183U 15081E   26013.00561829  .00000590  00000+0  16180-3 0  9997
2 41183  47.0053  15.3564 0002488  13.4872 346.6080 14.58648079535078
ORBCOMM FM112           
1 41184U 15081F   26013.00821885  .00000500  00000+0  14249-3 0  9994
2 41184  46.9994 283.8675 0001790 235.4484 124.6233 14.58650461536293
ORBCOMM FM113           
1 41185U 15081G   26012.78005676  .00000741  00000+0  19379-3 0  9997
2 41185  47.0010 285.3071 0001605 247.3248 112.7468 14.58650098536246
